SITRO-AIS-26
1 59067U 24039S   25301.68328269  .00005368  00000-0  43976-3 0  9994
2 59067  95.3924  76.1615 0153253  56.9923 304.5921 14.90678032 90193
SITRO-AIS-27
1 59068U 24039T   25301.64660328  .00005973  00000-0  48561-3 0  9993
2 59068  95.3922  76.3109 0152404  56.2214 305.3419 14.91025939 90201
SITRO-AIS-28
1 59071U 24039U   25301.62983709  .00005870  00000-0  47701-3 0  9997
2 59071  95.3924  76.3341 0152224  56.1536 305.4068 14.91068919 90207
SONATE-2
1 59112U 24043Q   25301.33439370  .00031466  00000-0  74058-3 0  9991
2 59112  97.5306  76.0150 0009331 332.8063  27.2693 15.41860865 91979
HORS-1
1 57188U 23091Y   25301.65479009  .00012157  00000-0  54129-3 0  9995
2 57188  97.5417 359.3511 0010082 177.1429 182.9866 15.21562241129048
HORS-2
1 57196U 23091AG  25301.62955439  .00016010  00000-0  64607-3 0  9991
2 57196  97.5432   1.2229 0009627 172.9236 187.2139 15.24836821129159
ZORKIY-2M 6
1 59774U 24092B   25301.64026421  .00013319  00000-0  57146-3 0  9998
2 59774  97.6273  60.7977 0009272 273.4682  86.5493 15.22815062 80225
ZORKIY-2M 4
1 59775U 24092C   25301.65035899  .00014309  00000-0  60444-3 0  9994
2 59775  97.6408  61.9989 0009298 276.9776  83.0402 15.23326817 80253
SITRO-AIS-53
1 59776U 24092D   25301.31054997  .00022347  00000-0  84808-3 0  9999
2 59776  97.6352  61.9561 0008392 248.1514 111.8832 15.26827763 80248
SITRO-AIS-54
1 59777U 24092E   25301.31345289  .00022354  00000-0  84958-3 0  9991
2 59777  97.6352  61.9442 0008595 248.5174 111.5148 15.26777214 80240
SITRO-AIS-56
1 59778U 24092F   25301.31286597  .00022670  00000-0  85080-3 0  9996
2 59778  97.6349  62.0680 0008743 248.8960 111.1345 15.27192051 80251
RASSVET 1-4
1 59779U 24092G   25301.63345656  .00000397  00000-0  16536-3 0  9996
2 59779  98.6503  56.2588 0012280 164.8405 195.3148 14.31700281 75768
RASSVET 1-5
1 59780U 24092H   25301.63329567  .00000380  00000-0  15910-3 0  9998
2 59780  98.6499  56.2538 0012628 166.2262 193.9268 14.31699689 75768
RASSVET 1-6
1 59781U 24092J   25301.63199536  .00000379  00000-0  15865-3 0  9997
2 59781  98.6500  56.2568 0012518 166.4623 193.6899 14.31699939 75761
SITRO-AIS-55
1 59809U 24092K   25301.28016064  .00022055  00000-0  84098-3 0  9992
2 59809  97.6347  61.7963 0008772 248.7108 111.3194 15.26669647 79733
MESAT-1
1 60209U 24125G   25301.56259739  .00033451  00000-0  76562-3 0  9993
2 60209  97.2592 152.0106 0016180 355.6266   4.4837 15.42591198 73637
ISTSAT-1
1 60238U 24128D   25301.57861031  .00009068  00000-0  58743-3 0  9991
2 60238  61.9898 302.7483 0055193  85.8615 274.8784 15.07503420 71493
IONOSFERA-M 01
1 61735U 24199A   25301.67695517  .00000093  00000-0  61139-4 0  9990
2 61735  98.7446 171.8617 0002088  85.8622 274.2795 14.22698986 94781
IONOSFERA-M 02
1 61736U 24199B   25301.64133111  .00000086  00000-0  58162-4 0  9999
2 61736  98.7451 171.7394 0000274  44.8957 315.2243 14.22700844 97908
SITRO-AIS-16
1 61737U 24199C   25301.65976975  .00004750  00000-0  42934-3 0  9995
2 61737  97.3392 150.3983 0008237 120.9095 239.2938 14.95867904 97188
SITRO-AIS-15
1 61738U 24199D   25301.64748501  .00004353  00000-0  39357-3 0  9991
2 61738  97.3390 150.4155 0007718 121.9879 238.2095 14.95901405 97181
SITRO-AIS-21
1 61739U 24199E   25301.63509792  .00002457  00000-0  23469-3 0  9998
2 61739  97.3398 149.5514 0014152 119.4603 240.8033 14.94036002 97165
SITRO-AIS-22
1 61740U 24199F   25301.68573581  .00003550  00000-0  33482-3 0  9993
2 61740  97.3404 149.6447 0014244 118.8302 241.4351 14.94283481 97325
SITRO-AIS-24
1 61741U 24199G   25301.62763638  .00004115  00000-0  38739-3 0  9990
2 61741  97.3401 149.5758 0013980 120.1405 240.1204 14.94279467 97280
SITRO-AIS-23
1 61742U 24199H   25301.67741965  .00004271  00000-0  40157-3 0  9995
2 61742  97.3405 149.6565 0014180 119.5432 240.7205 14.94311194 97176
SITRO-AIS-13
1 61743U 24199J   25301.67410304  .00005080  00000-0  45584-3 0  9994
2 61743  97.3400 150.5258 0007901 120.1845 240.0161 14.96121051 97358
CSTP-2.11
1 61744U 24199K   25301.68834704  .00026030  00000-0  68176-3 0  9990
2 61744  97.3306 170.0817 0012289  43.8112 316.4106 15.38607271 98612
POLYTECH UNIVERSE-5 (RS70S)
1 61745U 24199L   25301.65484812  .00031418  00000-0  74907-3 0  9994
2 61745  97.3282 170.6052 0010390  50.4104 309.8059 15.41458004101798
COLIBRI-S (RS67S)
1 61746U 24199M   25301.66872690  .00022840  00000-0  63157-3 0  9995
2 61746  97.3312 169.6551 0012482  45.7217 314.5049 15.36952146101726
POLYTECH UNIVERSE-4 (RS71S)
1 61747U 24199N   25301.69724831  .00019870  00000-0  56517-3 0  9993
2 61747  97.3314 169.4651 0012717  43.6676 316.5572 15.36096070101712
SITRO-AIS-44
1 61748U 24199P   25301.68252740  .00035666  00000-0  80689-3 0  9996
2 61748  97.3270 170.9935 0010022  49.9393 310.2732 15.43012198101826
VIZARD-ION (RS68S)
1 61749U 24199Q   25301.69263348  .00028168  00000-0  71140-3 0  9995
2 61749  97.3311 170.3858 0011872  43.5528 316.6653 15.39712384101770
MTUSI-1
1 61750U 24199R   25301.66619983  .00029628  00000-0  75992-3 0  9995
2 61750  97.3280 169.9822 0012268  52.2450 307.9905 15.39225028101758
VLADIVOSTOK-1
1 61751U 24199S   25301.65001571  .00012604  00000-0  41479-3 0  9992
2 61751  97.3298 168.0852 0012468  60.0504 300.1974 15.31568972101638
SITRO-AIS-14
1 61752U 24199T   25301.63590000  .00003980  00000-0  35978-3 0  9995
2 61752  97.3391 150.4293 0007460 121.8544 238.3405 14.95955085100480
HORS-3 (RS81S)
1 61753U 24199U   25301.68470753  .00028222  00000-0  71742-3 0  9998
2 61753  97.3282 170.0973 0011093  53.4748 306.7518 15.39522272101760
HORS-4 (RS82S)
1 61754U 24199V   25301.66471272  .00032663  00000-0  79359-3 0  9990
2 61754  97.3270 170.4076 0011256  51.7709 308.4549 15.40868844101780
SITRO-AIS-43
1 61755U 24199W   25301.66749238  .00036893  00000-0  83168-3 0  9993
2 61755  97.3269 171.0131 0009963  49.4862 310.7252 15.43111940101827
SITRO-AIS-42
1 61756U 24199X   25301.65847147  .00035850  00000-0  80560-3 0  9996
2 61756  97.3270 171.0293 0010069  49.3155 310.8966 15.43212393101829
HORIZON (RS59S)
1 61757U 24199Y   25301.69730089  .00050301  00000-0  97426-3 0  9994
2 61757  97.3284 171.9902 0010477  39.8738 320.3280 15.47501145101886
SITRO-AIS-20
1 61758U 24199Z   25301.65700111  .00004693  00000-0  42081-3 0  9994
2 61758  97.3387 150.5376 0007539 123.1655 237.0291 14.96185796100494
SITRO-AIS-19
1 61759U 24199AA  25301.65719858  .00004772  00000-0  42802-3 0  9992
2 61759  97.3388 150.5391 0007451 124.6712 235.5213 14.96172870100492
SITRO-AIS-41
1 61760U 24199AB  25301.64842102  .00036175  00000-0  82504-3 0  9997
2 61760  97.3275 170.9067 0010060  49.7872 310.4255 15.42766991101810
2024-199AC
1 61761U 24199AC  25301.67701924  .00030354  00000-0  75060-3 0  9999
2 61761  97.3269 170.3944 0010057  51.1250 309.0892 15.40362355101786
ARCTICSAT-1 (RS74S)
1 61762U 24199AD  25301.65971453  .00049375  00000-0  98558-3 0  9994
2 61762  97.3283 171.8831 0010691  38.8929 321.3088 15.46627803101875
SIT-HSE
1 61763U 24199AE  25301.66850053  .00036723  00000-0  90771-3 0  9990
2 61763  97.3288 170.7353 0008646  54.7091 305.4963 15.40349586101803
SIT-2086
1 61764U 24199AF  25301.63525502  .00022331  00000-0  55503-3 0  9990
2 61764  97.3282 170.7734 0009221  42.6544 317.5416 15.40276394 98640
MORDOVIA-IOT (RS50S)
1 61765U 24199AG  25301.68875976  .00094774  00000-0  13156-2 0  9996
2 61765  97.3233 173.7440 0008969  38.8450 321.3449 15.56663315 98857
RUZAEVKA-390 (RS44S)
1 61766U 24199AH  25301.63691821  .00072938  00000-0  11650-2 0  9992
2 61766  97.3245 173.0507 0009174  39.2191 320.9725 15.52893731 98804
2024-199AJ (? AHMAT-2)
1 61767U 24199AJ  25301.65867672  .00140949  00000-0  15210-2 0  9998
2 61767  97.3187 174.6309 0007428  39.5149 320.6650 15.63162855 98917
HOD-HOD
1 61768U 24199AK  25301.63649670  .00023977  00000-0  63357-3 0  9990
2 61768  97.3285 170.0444 0009054  58.0491 302.1634 15.38386788 98608
KOSAR
1 61769U 24199AL  25301.68069690  .00027602  00000-0  69823-3 0  9997
2 61769  97.3281 170.4186 0008905  58.0596 302.1515 15.39699598 98630
SITRO-AIS-48
1 61771U 24199AN  25301.64262334  .00032439  00000-0  81749-3 0  9991
2 61771  97.3254 169.7349 0013132  59.4601 300.7939 15.39733788 98594
HYPERVIEW-1G (RS66S)
1 61772U 24199AP  25301.67860564  .00040019  00000-0  89686-3 0  9995
2 61772  97.3269 170.6925 0013442  50.7679 309.4760 15.43226609 98654
SITRO-AIS-47
1 61773U 24199AQ  25301.68266723  .00032210  00000-0  80512-3 0  9997
2 61773  97.3255 169.8415 0013046  59.8402 300.4135 15.39985938 98602
SITRO-AIS-46
1 61774U 24199AR  25301.68970657  .00032312  00000-0  79494-3 0  9996
2 61774  97.3251 169.9656 0013125  59.8680 300.3866 15.40467596 98611
CSTP-2.2
1 61775U 24199AS  25301.63464519  .00018462  00000-0  52611-3 0  9999
2 61775  97.3297 168.8574 0019405  40.3343 319.9336 15.35941618 98521
SITRO-AIS-40
1 61776U 24199AT  25301.69063422  .00033145  00000-0  81395-3 0  9990
2 61776  97.3252 169.9683 0013216  59.8272 300.4282 15.40516150101767
CSTP-2.1
1 61777U 24199AU  25301.63186601  .00017864  00000-0  50702-3 0  9998
2 61777  97.3297 168.8540 0018840  41.0573 319.2085 15.36086201 98524
SITRO-AIS-39
1 61778U 24199AV  25301.67425844  .00032547  00000-0  82381-3 0  9991
2 61778  97.3254 169.6947 0013394  60.2152 300.0424 15.39595567 98598
ALTAIR (RS65S)
1 61779U 24199AW  25301.67564628  .00011115  00000-0  36639-3 0  9999
2 61779  97.3316 167.9272 0016405  59.2347 301.0508 15.31491620101619
SITRO-AIS-37
1 61780U 24199AX  25301.64594955  .00032429  00000-0  81234-3 0  9996
2 61780  97.3262 169.7718 0013616  60.3361 299.9239 15.39910089 98597
ASRTU-1 (RS64S/BJ2CR)
1 61781U 24199AY  25301.64922337  .00012090  00000-0  40821-3 0  9995
2 61781  97.3301 167.6218 0016829  60.0760 300.2150 15.30684963 98445
TUSUR GO (RS78S)
1 61782U 24199AZ  25301.67367395  .00055833  00000-0  11155-2 0  9995
2 61782  97.3257 171.1343 0013232  49.7624 310.4781 15.46538553 98682
